STARLINK-34490          
1 64478U 25133G   25191.83335648 -.01542745  00000+0 -20172-1 0  9993
2 64478  53.1594 169.9262 0000853  83.7249 225.8732 15.61128295  4016
STARLINK-34528          
1 64479U 25133H   25191.58335648 -.01589523  00000+0 -20151-1 0  9998
2 64479  53.1596 171.1490 0000979  72.2354 269.2270 15.62014195  3951
STARLINK-34518          
1 64480U 25133J   25191.83335648 -.01545709  00000+0 -20214-1 0  9996
2 64480  53.1594 169.9215 0000883  96.0744 215.4414 15.61130024  3853
STARLINK-34526          
1 64481U 25133K   25191.83335648 -.01542224  00000+0 -20165-1 0  9991
2 64481  53.1595 169.9179 0000835  85.8546 227.5781 15.61127623  3905
STARLINK-34527          
1 64482U 25133L   25191.83335648 -.01542308  00000+0 -20165-1 0  9995
2 64482  53.1597 169.9138 0000848  84.4509 230.8962 15.61129072  4012
STARLINK-34420          
1 64483U 25133M   25191.83335648 -.01546610  00000+0 -20226-1 0  9994
2 64483  53.1595 169.9097 0000963  94.9327 222.3333 15.61130866  4018
STARLINK-34509          
1 64484U 25133N   25191.83335648 -.01541641  00000+0 -20156-1 0  9996
2 64484  53.1593 169.9057 0000914  86.2042 232.9796 15.61127440  4011
STARLINK-34409          
1 64485U 25133P   25191.84028257 -.00468091  00000+0 -56654-2 0  9992
2 64485  53.1592 169.8681 0000920 186.6748 173.4254 15.61561601  4017
STARLINK-34520          
1 64486U 25133Q   25191.83335648 -.01542344  00000+0 -20166-1 0  9990
2 64486  53.1592 169.8985 0000851  88.0490 234.9668 15.61128435  4013
STARLINK-34477          
1 64487U 25133R   25191.83335648 -.01543846  00000+0 -20187-1 0  9992
2 64487  53.1595 169.8942 0000875  84.0889 240.8429 15.61129590  4018
STARLINK-34217          
1 64488U 25133S   25191.58335648 -.01583706  00000+0 -20067-1 0  9991
2 64488  53.1589 171.1086 0000964  70.5005 290.1277 15.62015373  3861
STARLINK-34307          
1 64489U 25133T   25191.66668981 -.01558819  00000+0 -19944-1 0  9999
2 64489  53.1593 170.6979 0000981  73.3617  38.0118 15.61716808  3965
STARLINK-34505          
1 64490U 25133U   25191.58335648 -.01522178  00000+0 -19215-1 0  9993
2 64490  53.1593 171.0999 0000793  76.2780 288.1941 15.61986866  3985
STARLINK-34530          
1 64491U 25133V   25191.66668981 -.01558751  00000+0 -19942-1 0  9995
2 64491  53.1593 170.6895 0001037  57.9140  57.2902 15.61717575  3963
STARLINK-34522          
1 64492U 25133W   25191.77388138 -.00569243  00000+0 -69285-2 0  9994
2 64492  53.1594 170.1641 0000917  99.9638 260.1480 15.61739853  4008
STARLINK-34462          
1 64493U 25133X   25191.77354434 -.00250495  00000+0 -29107-2 0  9992
2 64493  53.1596 170.1612 0001118 208.5936 151.5017 15.61900986  4008
STARLINK-34226          
1 64494U 25133Y   25191.66668981 -.01562908  00000+0 -20002-1 0  9996
2 64494  53.1596 170.6779 0001048  66.0589  54.8990 15.61717315  3827
STARLINK-34364          
1 64495U 25133Z   25191.77249578 -.00167892  00000+0 -19168-2 0  9990
2 64495  53.1593 170.1541 0001676  39.3009 320.8127 15.62065536  4016
STARLINK-34268          
1 64496U 25133AA  25191.66668981 -.01559545  00000+0 -19954-1 0  9995
2 64496  53.1595 170.6737 0000900  71.8462  51.0271 15.61718154  3982
STARLINK-34363          
1 64497U 25133AB  25191.66668981 -.01556665  00000+0 -19915-1 0  9993
2 64497  53.1595 170.6660 0000946  69.8057  56.9042 15.61714552  3994
STARLINK-34427          
1 64498U 25133AC  25191.77181352 -.00171799  00000+0 -19622-2 0  9994
2 64498  53.1597 170.1494 0001671  35.7837 324.3289 15.62069130  4016
KUIPER-00039            
1 64500U 25134A   25191.51393640  .00010823  00000+0  32803-3 0  9991
2 64500  51.8674 248.8110 0007900 174.5953 185.5120 15.34640705  3866
KUIPER-00040            
1 64501U 25134B   25191.52388348  .00010315  00000+0  32176-3 0  9991
2 64501  51.8650 248.8723 0011160 186.7831 173.3005 15.33753916  3869
KUIPER-00041            
1 64502U 25134C   25191.51930009  .00010335  00000+0  31753-3 0  9990
2 64502  51.8677 248.8456 0009882 181.8607 178.2343 15.34247189  3867
KUIPER-00042            
1 64503U 25134D   25191.51743240  .00010784  00000+0  32965-3 0  9994
2 64503  51.8649 248.8308 0009111 175.7628 184.3436 15.34366737  3865
KUIPER-00043            
1 64504U 25134E   25191.51471202  .00007218  00000+0  22323-3 0  9996
2 64504  51.8685 248.8169 0008354 170.0368 190.0784 15.34549737  3861
KUIPER-00044            
1 64505U 25134F   25191.52184614  .00006116  00000+0  19426-3 0  9992
2 64505  51.8633 248.8574 0011181 178.8142 181.2872 15.33968059  3864
KUIPER-00046            
1 64506U 25134G   25191.51823457  .00010480  00000+0  32089-3 0  9996
2 64506  51.8662 248.8371 0009990 174.2938 185.8163 15.34338616  3864
KUIPER-00047            
1 64507U 25134H   25191.52152759  .00006234  00000+0  19765-3 0  9996
2 64507  51.8621 248.8541 0010527 185.2515 174.8361 15.33995346  3866
KUIPER-00048            
1 64508U 25134J   25191.50034082  .00008187  00000+0  24097-3 0  9996
2 64508  51.8766 248.7257 0003215 157.2168 202.8961 15.35946205  3869
KUIPER-00049            
1 64509U 25134K   25191.51049919  .00007839  00000+0  23792-3 0  9997
2 64509  51.8707 248.7916 0007184 168.6052 191.5098 15.35024639  3867
KUIPER-00050            
1 64510U 25134L   25191.51198034  .00011105  00000+0  33384-3 0  9991
2 64510  51.8719 248.8015 0007769 169.1467 190.9687 15.34873284  3862
KUIPER-00051            
1 64511U 25134M   25191.50661292  .00007942  00000+0  23866-3 0  9990
2 64511  51.8729 248.7675 0005445 162.3243 197.7933 15.35328026  3860
KUIPER-00052            
1 64512U 25134N   25191.76375453  .00027709  00000+0  76572-3 0  9995
2 64512  51.8754 247.4915 0003581 162.0735 198.0378 15.36827898  3447
KUIPER-00053            
1 64513U 25134P   25191.75705291  .00014711  00000+0  42149-3 0  9994
2 64513  51.8772 247.4448 0002344 149.8976 210.2145 15.36132716  3442
KUIPER-00054            
1 64514U 25134Q   25191.75968222  .00006173  00000+0  18424-3 0  9992
2 64514  51.8760 247.4647 0003126 149.0455 211.0716 15.35976406  3842
KUIPER-00055            
1 64515U 25134R   25191.75210645  .00007374  00000+0  21402-3 0  9996
2 64515  51.8774 247.4135 0000703  85.5242 274.5825 15.36547960  3751
KUIPER-00056            
1 64516U 25134S   25191.50173831  .00011876  00000+0  34580-3 0  9998
2 64516  51.8741 248.7366 0003743 159.9040 200.2094 15.35826311  3860
KUIPER-00057            
1 64517U 25134T   25191.77054668  .00011379  00000+0  34167-3 0  9993
2 64517  51.8695 247.5335 0006827 167.6235 192.4920 15.34889030  3552
KUIPER-00058            
1 64518U 25134U   25191.50560935  .00012102  00000+0  35664-3 0  9992
2 64518  51.8721 248.7610 0004879 168.2233 191.8868 15.35425269  3861
KUIPER-00059            
1 64519U 25134V   25191.75357536  .00007418  00000+0  21515-3 0  9995
2 64519  51.8776 247.4194 0001387 103.7821 256.3320 15.36561070  3438
KUIPER-00060            
1 64520U 25134W   25191.49575665  .00007761  00000+0  22662-3 0  9998
2 64520  51.8771 248.6951 0002369 119.4788 240.6435 15.36280480  3858
KUIPER-00061            
1 64521U 25134X   25191.76763248  .00007038  00000+0  21295-3 0  9993
2 64521  51.8738 247.5166 0005734 163.7654 196.3517 15.35303097  3443
KUIPER-00062            
1 64522U 25134Y   25191.76373581  .00007311  00000+0  21939-3 0  9990
2 64522  51.8746 247.4916 0004918 158.2733 201.8462 15.35504836  3440
KUIPER-00063            
1 64523U 25134Z   25191.49814128  .00007755  00000+0  22752-3 0  9994
2 64523  51.8754 248.7129 0002725 139.5083 220.6106 15.36128608  3864
KUIPER-00064            
1 64524U 25134AA  25191.75229912  .00007414  00000+0  21431-3 0  9990
2 64524  51.8775 247.4129 0001564  94.5353 265.5812 15.36668100  3749
KUIPER-00065            
1 64525U 25134AB  25191.51580580  .00010677  00000+0  32557-3 0  9992
2 64525  51.8699 248.8249 0008712 171.5308 188.5826 15.34459245  3858
KUIPER-00066            
1 64526U 25134AC  25191.75500720  .00007410  00000+0  21613-3 0  9999
2 64526  51.8766 247.4341 0001565 109.1906 250.9249 15.36383975  3448
2025-131D               
1 64527U 25131D   25191.72293535 -.00000292  00000+0  00000+0 0  9992
2 64527   1.0186 280.6522 3676744 174.0915 199.1833  1.00267712   203
AXIOM-4 (AX-4)          
1 64593U 25136A   25191.49368601  .00007939  00000+0  14455-3 0  9998
2 64593  51.6350 191.5447 0002161   1.4001 135.0516 15.50469967  2214
STARLINK-34280          
1 64594U 25137A   25191.77246573 -.00236692  00000+0 -13192-2 0  9992
2 64594  53.1553  34.0673 0000726  29.0012 331.1050 15.79326977  3488
STARLINK-34517          
1 64595U 25137B   25191.77211044 -.00253825  00000+0 -14176-2 0  9998
2 64595  53.1551  34.0649 0000467 150.4578 209.6470 15.79330332  3483
STARLINK-34510          
1 64596U 25137C   25191.77161079 -.00247743  00000+0 -13862-2 0  9994
2 64596  53.1552  34.0616 0000450  31.5995 328.5054 15.79272869  3482
STARLINK-34486          
1 64597U 25137D   25191.77113253 -.00254494  00000+0 -14281-2 0  9993
2 64597  53.1552  34.0580 0000597  23.8628 336.2421 15.79227581  3487
STARLINK-34463          
1 64598U 25137E   25191.77062414 -.00274754  00000+0 -15505-2 0  9997
2 64598  53.1551  34.0538 0000338 109.6176 250.4882 15.79160243  3483
STARLINK-34294          
1 64599U 25137F   25191.77017362 -.00182598  00000+0 -10225-2 0  9998
2 64599  53.1551  34.0516 0000974 184.8849 175.2164 15.79066897  3485
STARLINK-34504          
1 64600U 25137G   25191.76972577 -.00301837  00000+0 -17175-2 0  9998
2 64600  53.1551  34.0481 0001127  32.0471 328.0619 15.79048878  3487
STARLINK-34508          
1 64601U 25137H   25191.76925338 -.00269472  00000+0 -15298-2 0  9994
2 64601  53.1550  34.0453 0005111 174.4683 185.6397 15.78982981  3480
STARLINK-34435          
1 64602U 25137J   25191.76877416 -.00011246  00000+0 -58729-4 0  9990
2 64602  53.1551  34.0419 0001994 339.8386  20.2556 15.78874130  3483
